NORAD_CAT_ID,OBJECT_NAME,OBJECT_TYPE,EPOCH,MEAN_MOTION,ECCENTRICITY,INCLINATION,RA_OF_ASC_NODE,ARG_OF_PERICENTER,MEAN_ANOMALY,BSTAR,MEAN_MOTION_DOT,MEAN_MOTION_DDOT,TLE_LINE0,TLE_LINE1,TLE_LINE2,SEMIMAJOR_AXIS,PERIOD,APOGEE,PERIGEE,DECAYED
51854.0,STARLINK-3541,PAYLOAD,2022-03-28 22:00:00,15.64227499,0.0001195,53.2174,19.0586,61.9571,36.1192,-0.0080601,-0.0071718999999999,0.0,0 STARLINK-3541,1 51854U 22022C   22087.91667824 -.00717190  00000-0 -80601-2 0  9997,2 51854  53.2174  19.0586 0001195  61.9571  36.1192 15.64227499  3689,6753.598000000001,92.058,376.27,374.656,0.0
51854.0,STARLINK-3541,PAYLOAD,2022-03-29 04:00:00,15.63845026,0.0001105,53.2173,17.8382,71.1226,355.38699999999994,-0.0081828,-0.00717099,0.0,0 STARLINK-3541,1 51854U 22022C   22088.16667824 -.00717099  00000-0 -81828-2 0  9995,2 51854  53.2173  17.8382 0001105  71.1226 355.3870 15.63845026  5287,6754.699000000001,92.081,377.311,375.818,0.0
51854.0,STARLINK-3541,PAYLOAD,2022-03-29 14:00:01,15.63083425,0.0001105,53.2181,15.8029,54.1541,199.051,-0.0064464,-0.00558981,0.0,0 STARLINK-3541,1 51854U 22022C   22088.58334491 -.00558981  00000-0 -64464-2 0  9992,2 51854  53.2181  15.8029 0001105  54.1541 199.0510 15.63083425  3664,6756.893,92.126,379.505,378.012,0.0
51854.0,STARLINK-3541,PAYLOAD,2022-03-29 22:00:00,15.62618644,0.0001152,53.2179,14.1761,83.8612,245.9248,-0.0072326,-0.00611788,0.0,0 STARLINK-3541,1 51854U 22022C   22088.91667824 -.00611788  00000-0 -72326-2 0  9999,2 51854  53.2179  14.1761 0001152  83.8612 245.9248 15.62618644  3661,6758.233,92.153,380.877,379.32,0.0
51854.0,STARLINK-3541,PAYLOAD,2022-03-30 02:00:01,15.62442776,0.0001274999999999,53.2175,13.3635,74.9552,112.8645,-0.0086425,-0.0071665,0.0,0 STARLINK-3541,1 51854U 22022C   22089.08334491 -.00716650  00000-0 -86425-2 0  9998,2 51854  53.2175  13.3635 0001275  74.9552 112.8645 15.62442776  5439,6758.74,92.163,381.467,379.744,0.0
51854.0,STARLINK-3541,PAYLOAD,2022-03-30 14:00:01,15.61673728,0.0001327,53.2175,10.9258,54.1781,67.0154,-0.0088089,-0.00709435,0.0,0 STARLINK-3541,1 51854U 22022C   22089.58335648 -.00709435  00000-0 -88089-2 0  9999,2 51854  53.2175  10.9258 0001327  54.1781  67.0154 15.61673728  3677,6760.959,92.209,383.721,381.927,0.0
51854.0,STARLINK-3541,PAYLOAD,2022-03-30 22:00:00,15.61166189,0.0001401,53.2176,9.3029,56.9513,138.9486,-0.0090475,-0.00714,0.0,0 STARLINK-3541,1 51854U 22022C   22089.91667824 -.00714000  00000-0 -90475-2 0  9996,2 51854  53.2176   9.3029 0001401  56.9513 138.9486 15.61166189  3722,6762.424,92.239,385.237,383.342,0.0
51854.0,STARLINK-3541,PAYLOAD,2022-03-31 06:00:00,15.60654779,0.000133,53.2172,7.6825,56.9745,213.084,-0.0091844,-0.00710838,0.0,0 STARLINK-3541,1 51854U 22022C   22090.25001157 -.00710838  00000-0 -91844-2 0  9992,2 51854  53.2172   7.6825 0001330  56.9745 213.0840 15.60654779  5616,6763.901999999999,92.269,386.666,384.867,0.0
51854.0,STARLINK-3541,PAYLOAD,2022-03-31 14:00:01,15.60145256,0.0001052,53.2173,6.0602,70.306,273.3001,-0.0093897,-0.00712375,0.0,0 STARLINK-3541,1 51854U 22022C   22090.58334491 -.00712375  00000-0 -93897-2 0  9996,2 51854  53.2173   6.0602 0001052  70.3060 273.3001 15.60145256  3693,6765.374,92.299,387.951,386.527,0.0
51854.0,STARLINK-3541,PAYLOAD,2022-03-31 22:00:00,15.59637959,0.0001205,53.2174,4.442,57.2132,359.3248,-0.0096362,-0.007166,0.0,0 STARLINK-3541,1 51854U 22022C   22090.91667824 -.00716600  00000-0 -96362-2 0  9997,2 51854  53.2174   4.4420 0001205  57.2132 359.3248 15.59637959  3690,6766.840999999999,92.329,389.521,387.891,0.0
51854.0,STARLINK-3541,PAYLOAD,2022-04-01 06:00:00,15.5912536,0.0001149,53.2172,2.8251,73.1955,55.6634,-0.009753,-0.0071162,0.0,0 STARLINK-3541,1 51854U 22022C   22091.25001157 -.00711620  00000-0 -97530-2 0  9991,2 51854  53.2172   2.8251 0001149  73.1955  55.6634 15.59125360  5762,6768.324000000001,92.359,390.967,389.411,0.0
51854.0,STARLINK-3541,PAYLOAD,2022-04-01 14:00:01,15.58615456,0.0001311,53.2174,1.2062,63.249,137.3192,-0.0099439,-0.00711607,0.0,0 STARLINK-3541,1 51854U 22022C   22091.58334491 -.00711607  00000-0 -99439-2 0  9992,2 51854  53.2174   1.2062 0001311  63.2490 137.3192 15.58615456  3700,6769.8,92.39,392.55300000000005,390.778,0.0
51854.0,STARLINK-3541,PAYLOAD,2022-04-01 22:00:00,15.58106439,0.0001385999999999,53.2177,359.592,57.0095,214.6527,-0.010165,-0.00713355,0.0,0 STARLINK-3541,1 51854U 22022C   22091.91667824 -.00713355  00000-0 -10165-1 0  9998,2 51854  53.2177 359.5920 0001386  57.0095 214.6527 15.58106439  3672,6771.275,92.42,394.078,392.201,0.0
51854.0,STARLINK-3541,PAYLOAD,2022-04-02 06:00:00,15.5759709,0.0001281999999999,53.2173,357.9785,49.8588,292.2848,-0.010363,-0.00713348,0.0,0 STARLINK-3541,1 51854U 22022C   22092.25001157 -.00713348  00000-0 -10363-1 0  9999,2 51854  53.2173 357.9785 0001282  49.8588 292.2848 15.57597090  5924,6772.751,92.45,395.484,393.747,0.0
51854.0,STARLINK-3541,PAYLOAD,2022-04-02 22:00:01,15.56509105,0.0001188,53.2177,354.7544,64.8942,56.476000000000006,-0.0093339,-0.00623765,0.0,0 STARLINK-3541,1 51854U 22022C   22092.91668981 -.00623765  00000-0 -93339-2 0  9994,2 51854  53.2177 354.7544 0001188  64.8942  56.4760 15.56509105  3663,6775.906,92.515,398.576,396.966,0.0
51854.0,STARLINK-3541,PAYLOAD,2022-04-03 04:00:00,15.56190895,0.0001139,53.2173,353.5461,66.5719,16.24,-0.010838,-0.00708113,0.0,0 STARLINK-3541,1 51854U 22022C   22093.16667824 -.00708113  00000-0 -10838-1 0  9990,2 51854  53.2173 353.5461 0001139  66.5719  16.2400 15.56190895  6065,6776.83,92.534,399.467,397.923,0.0
51854.0,STARLINK-3541,PAYLOAD,2022-04-03 22:00:00,15.55046991,0.0001304,53.2173,349.9253,55.6238,269.7404,-0.011403,-0.00713543,0.0,0 STARLINK-3541,1 51854U 22022C   22093.91667824 -.00713543  00000-0 -11403-1 0  9995,2 51854  53.2173 349.9253 0001304  55.6238 269.7404 15.55046991  3693,6780.153,92.602,402.902,401.134,0.0
51854.0,STARLINK-3541,PAYLOAD,2022-04-04 04:00:00,15.54661959,0.0001151,53.2174,348.7209,82.7264,202.7997,-0.011481,-0.00708682,0.0,0 STARLINK-3541,1 51854U 22022C   22094.16667824 -.00708682  00000-0 -11481-1 0  9997,2 51854  53.2174 348.7209 0001151  82.7264 202.7997 15.54661959  6224,6781.272,92.625,403.918,402.357,0.0
51854.0,STARLINK-3541,PAYLOAD,2022-04-04 14:00:01,15.54026829,0.0001242,53.2173,346.7114,58.5278,39.8361,-0.011843,-0.0071369,0.0,0 STARLINK-3541,1 51854U 22022C   22094.58334491 -.00713690  00000-0 -11843-1 0  9991,2 51854  53.2173 346.7114 0001242  58.5278  39.8361 15.54026829  3719,6783.12,92.662,405.827,404.143,0.0
51854.0,STARLINK-3541,PAYLOAD,2022-04-04 22:00:00,15.53515319,0.000152,53.2173,345.1085,51.7858,112.1578,-0.012013,-0.00710803,0.0,0 STARLINK-3541,1 51854U 22022C   22094.91667824 -.00710803  00000-0 -12013-1 0  9990,2 51854  53.2173 345.1085 0001520  51.7858 112.1578 15.53515319  3707,6784.609,92.693,407.505,405.443,0.0
51854.0,STARLINK-3541,PAYLOAD,2022-04-05 06:00:00,15.53008516,0.000145,53.2171,343.5054,53.6146,175.2949,-0.012332,-0.00715824,0.0,0 STARLINK-3541,1 51854U 22022C   22095.25001157 -.00715824  00000-0 -12332-1 0  9991,2 51854  53.2171 343.5054 0001450  53.6146 175.2949 15.53008516  6392,6786.085,92.723,408.934,406.966,0.0
51854.0,STARLINK-3541,PAYLOAD,2022-04-05 14:00:01,15.52495279,0.0001226,53.2174,341.9017,66.9883,226.3426,-0.012462,-0.00710437,0.0,0 STARLINK-3541,1 51854U 22022C   22095.58335648 -.00710437  00000-0 -12462-1 0  9991,2 51854  53.2174 341.9017 0001226  66.9883 226.3426 15.52495279  3707,6787.58,92.754,410.277,408.61300000000006,0.0
51854.0,STARLINK-3541,PAYLOAD,2022-04-05 22:00:00,15.51987453,0.0001401,53.2175,340.3028,46.3943,310.6117,-0.012754,-0.00713572,0.0,0 STARLINK-3541,1 51854U 22022C   22095.91667824 -.00713572  00000-0 -12754-1 0  9999,2 51854  53.2175 340.3028 0001401  46.3943 310.6117 15.51987453  3700,6789.061,92.784,411.877,409.975,0.0
51854.0,STARLINK-3541,PAYLOAD,2022-04-06 06:00:02,15.51477032,0.0001103,53.2171,338.7033,69.3093,350.8902,-0.0129639999999999,-0.00721262,0.0,0 STARLINK-3541,1 51854U 22022C   22096.25002315 -.00721262  00000-0 -12964-1 0  9993,2 51854  53.2171 338.7033 0001103  69.3093 350.8902 15.51477032  6543,6790.55,92.815,413.164,411.666,0.0
51854.0,STARLINK-3541,PAYLOAD,2022-04-06 14:00:01,15.509673499999998,0.0001341,53.2172,337.1035,54.6244,68.0277,-0.013237,-0.00722992,0.0,0 STARLINK-3541,1 51854U 22022C   22096.58334491 -.00722992  00000-0 -13237-1 0  9997,2 51854  53.2172 337.1035 0001341  54.6244  68.0277 15.50967350  3702,6792.0369999999975,92.845,414.81300000000016,412.992,0.0
51854.0,STARLINK-3541,PAYLOAD,2022-04-06 22:00:00,15.50421083,0.0001588,53.2172,335.5088,47.6486,136.9132,-0.011798,-0.00630654,0.0,0 STARLINK-3541,1 51854U 22022C   22096.91667824 -.00630654  00000-0 -11798-1 0  9996,2 51854  53.2172 335.5088 0001588  47.6486 136.9132 15.50421083  3696,6793.6330000000025,92.878,416.577,414.419,0.0
51854.0,STARLINK-3541,PAYLOAD,2022-04-07 04:00:00,15.49936781,0.0001146,53.2171,334.3131,70.5954,70.0002,-0.0014354,-0.00081225,0.0,0 STARLINK-3541,1 51854U 22022C   22097.16667824 -.00081225  00000-0 -14354-2 0  9990,2 51854  53.2171 334.3131 0001146  70.5954  70.0002 15.49936781  6697,6795.0480000000025,92.907,417.692,416.134,0.0
51854.0,STARLINK-3541,PAYLOAD,2022-04-07 14:00:01,15.49885254,0.000129,53.2173,332.3192,66.965,239.8005,5.543300000000002e-06,-1.37e-06,0.0,0 STARLINK-3541,1 51854U 22022C   22097.58334491 -.00000137  00000-0  55433-5 0  9995,2 51854  53.2173 332.3192 0001290  66.9650 239.8005 15.49885254  3701,6795.198,92.91,417.94,416.187,0.0
51854.0,STARLINK-3541,PAYLOAD,2022-04-07 20:00:01,15.50026053,0.0001179,53.2177,331.1304,63.7403,198.862,-0.0050667,-0.00279386,0.0,0 STARLINK-3541,1 51854U 22022C   22097.83334491 -.00279386  00000-0 -50667-2 0  9999,2 51854  53.2177 331.1304 0001179  63.7403 198.8620 15.50026053  6799,6794.7869999999975,92.902,417.453,415.851,0.0
